{"type": "FeatureCollection", "features": [ {"type": "Feature", "properties": {"norad_id": 54234, "name": "NOAA 21 (JPSS-2)", "group": "weather", "lat": -15.911542858328534, "lon": -69.4242954230149, "alt_km": 830.6358022333425, "timestamp": "2025-12-17T19:34:07.688159+00:00", "meta": {"OBJECT_NAME": "NOAA 21 (JPSS-2)", "OBJECT_ID": "2022-150A", "EPOCH": "2025-12-17T07:48:10.291104", "MEAN_MOTION": 14.1952558, "ECCENTRICITY": 0.00020284, "INCLINATION": 98.7467, "RA_OF_ASC_NODE": 287.5762, "ARG_OF_PERICENTER": 29.154, "MEAN_ANOMALY": 330.9749, "EPHEMERIS_TYPE": 0, "CLASSIFICATION_TYPE": "U", "NORAD_CAT_ID": 54234, "ELEMENT_SET_NO": 999, "REV_AT_EPOCH": 16074, "BSTAR": 4.6371737e-05, "MEAN_MOTION_DOT": 5.4e-07, "MEAN_MOTION_DDOT": 0}, "tle": {"line1": "1 54234U 22150A   25351.32511911  .00000054  00000+0  46372-4 0  9991", "line2": "2 54234  98.7467 287.5762 0002028  29.1540 330.9749 14.19525580160744"}}, "geometry": {"type": "Point", "coordinates": [-69.4242954230149, -15.911542858328534]}}, {"type": "Feature", "properties": {"norad_id": 54743, "name": "METEOSAT-12 (MTG-I1)", "group": "weather", "lat": -0.03825164360659053, "lon": 19.928866941043786, "alt_km": 35789.38038566335, "timestamp": "2025-12-17T19:34:07.688171+00:00", "meta": {"OBJECT_NAME": "METEOSAT-12 (MTG-I1)", "OBJECT_ID": "2022-170C", "EPOCH": "2025-12-17T04:45:49.288896", "MEAN_MOTION": 1.002701, "ECCENTRICITY": 0.00015142, "INCLINATION": 0.6914, "RA_OF_ASC_NODE": 24.3422, "ARG_OF_PERICENTER": 239.2541, "MEAN_ANOMALY": 253.6472, "EPHEMERIS_TYPE": 0, "CLASSIFICATION_TYPE": "U", "NORAD_CAT_ID": 54743, "ELEMENT_SET_NO": 999, "REV_AT_EPOCH": 1115, "BSTAR": 0, "MEAN_MOTION_DOT": 1.7e-07, "MEAN_MOTION_DDOT": 0}, "tle": {"line1": "1 54743U 22170C   25351.19848714  .00000017  00000+0  00000+0 0  9999", "line2": "2 54743   0.6914  24.3422 0001514 239.2541 253.6472  1.00270100 11157"}}, "geometry": {"type": "Point", "coordinates": [19.928866941043786, -0.03825164360659053]}}, {"type": "Feature", "properties": {"norad_id": 55973, "name": "TIANMU-1 03", "group": "weather", "lat": -34.07627011650131, "lon": 159.72859542033763, "alt_km": 448.78722863480834, "timestamp": "2025-12-17T19:34:07.688181+00:00", "meta": {"OBJECT_NAME": "TIANMU-1 03", "OBJECT_ID": "2023-039A", "EPOCH": "2025-12-17T08:48:32.930784", "MEAN_MOTION": 15.41058669, "ECCENTRICITY": 0.00041898, "INCLINATION": 97.5101, "RA_OF_ASC_NODE": 154.1479, "ARG_OF_PERICENTER": 48.0796, "MEAN_ANOMALY": 312.0807, "EPHEMERIS_TYPE": 0, "CLASSIFICATION_TYPE": "U", "NORAD_CAT_ID": 55973, "ELEMENT_SET_NO": 999, "REV_AT_EPOCH": 15277, "BSTAR": 0.00029805236, "MEAN_MOTION_DOT": 0.00012234, "MEAN_MOTION_DDOT": 0}, "tle": {"line1": "1 55973U 23039A   25351.36704781  .00012234  00000+0  29805-3 0  9996", "line2": "2 55973  97.5101 154.1479 0004189  48.0796 312.0807 15.41058669152779"}}, "geometry": {"type": "Point", "coordinates": [159.72859542033763, -34.07627011650131]}}, {"type": "Feature", "properties": {"norad_id": 55974, "name": "TIANMU-1 04", "group": "weather", "lat": 81.4555521669226, "lon": 92.48277453861193, "alt_km": 432.18548207295044, "timestamp": "2025-12-17T19:34:07.688192+00:00", "meta": {"OBJECT_NAME": "TIANMU-1 04", "OBJECT_ID": "2023-039B", "EPOCH": "2025-12-17T08:17:29.717376", "MEAN_MOTION": 15.41397071, "ECCENTRICITY": 0.00048523, "INCLINATION": 97.5033, "RA_OF_ASC_NODE": 153.3148, "ARG_OF_PERICENTER": 42.3228, "MEAN_ANOMALY": 317.8392, "EPHEMERIS_TYPE": 0, "CLASSIFICATION_TYPE": "U", "NORAD_CAT_ID": 55974, "ELEMENT_SET_NO": 999, "REV_AT_EPOCH": 15277, "BSTAR": 0.00031012399, "MEAN_MOTION_DOT": 0.00012879, "MEAN_MOTION_DDOT": 0}, "tle": {"line1": "1 55974U 23039B   25351.34548284  .00012879  00000+0  31012-3 0  9997", "line2": "2 55974  97.5033 153.3148 0004852  42.3228 317.8392 15.41397071152777"}}, "geometry": {"type": "Point", "coordinates": [92.48277453861193, 81.4555521669226]}}, {"type": "Feature", "properties": {"norad_id": 55975, "name": "TIANMU-1 05", "group": "weather", "lat": 67.84303962560578, "lon": -6.812210136959111, "alt_km": 434.5125159493882, "timestamp": "2025-12-17T19:34:07.688202+00:00", "meta": {"OBJECT_NAME": "TIANMU-1 05", "OBJECT_ID": "2023-039C", "EPOCH": "2025-12-17T08:10:50.931264", "MEAN_MOTION": 15.41014901, "ECCENTRICITY": 0.00042451, "INCLINATION": 97.508, "RA_OF_ASC_NODE": 153.8027, "ARG_OF_PERICENTER": 65.8693, "MEAN_ANOMALY": 294.2996, "EPHEMERIS_TYPE": 0, "CLASSIFICATION_TYPE": "U", "NORAD_CAT_ID": 55975, "ELEMENT_SET_NO": 999, "REV_AT_EPOCH": 15275, "BSTAR": 0.00030750342, "MEAN_MOTION_DOT": 0.00012607, "MEAN_MOTION_DDOT": 0}, "tle": {"line1": "1 55975U 23039C   25351.34086726  .00012607  00000+0  30750-3 0  9993", "line2": "2 55975  97.5080 153.8027 0004245  65.8693 294.2996 15.41014901152757"}}, "geometry": {"type": "Point", "coordinates": [-6.812210136959111, 67.84303962560578]}}, {"type": "Feature", "properties": {"norad_id": 55976, "name": "TIANMU-1 06", "group": "weather", "lat": 73.04394705029178, "lon": 129.12478949872892, "alt_km": 431.83568757451667, "timestamp": "2025-12-17T19:34:07.688212+00:00", "meta": {"OBJECT_NAME": "TIANMU-1 06", "OBJECT_ID": "2023-039D", "EPOCH": "2025-12-17T08:20:24.260064", "MEAN_MOTION": 15.41448709, "ECCENTRICITY": 0.0004535, "INCLINATION": 97.509, "RA_OF_ASC_NODE": 154.2784, "ARG_OF_PERICENTER": 60.334, "MEAN_ANOMALY": 299.8358, "EPHEMERIS_TYPE": 0, "CLASSIFICATION_TYPE": "U", "NORAD_CAT_ID": 55976, "ELEMENT_SET_NO": 999, "REV_AT_EPOCH": 15277, "BSTAR": 0.00030611995, "MEAN_MOTION_DOT": 0.00012733, "MEAN_MOTION_DDOT": 0}, "tle": {"line1": "1 55976U 23039D   25351.34750301  .00012733  00000+0  30612-3 0  9998", "line2": "2 55976  97.5090 154.2784 0004535  60.3340 299.8358 15.41448709152777"}}, "geometry": {"type": "Point", "coordinates": [129.12478949872892, 73.04394705029178]}}, {"type": "Feature", "properties": {"norad_id": 56232, "name": "FENGYUN 3G", "group": "weather", "lat": 41.80370088290154, "lon": -110.06044459713222, "alt_km": 401.6232550222812, "timestamp": "2025-12-17T19:34:07.688225+00:00", "meta": {"OBJECT_NAME": "FENGYUN 3G", "OBJECT_ID": "2023-055A", "EPOCH": "2025-12-17T06:57:46.541664", "MEAN_MOTION": 15.53917827, "ECCENTRICITY": 0.00093563, "INCLINATION": 49.9924, "RA_OF_ASC_NODE": 203.9687, "ARG_OF_PERICENTER": 169.2779, "MEAN_ANOMALY": 190.839, "EPHEMERIS_TYPE": 0, "CLASSIFICATION_TYPE": "U", "NORAD_CAT_ID": 56232, "ELEMENT_SET_NO": 999, "REV_AT_EPOCH": 15173, "BSTAR": 0.00039266245, "MEAN_MOTION_DOT": 0.00025481, "MEAN_MOTION_DDOT": 0}, "tle": {"line1": "1 56232U 23055A   25351.29012201  .00025481  00000+0  39266-3 0  9994", "line2": "2 56232  49.9924 203.9687 0009356 169.2779 190.8390 15.53917827151731"}}, "geometry": {"type": "Point", "coordinates": [-110.06044459713222, 41.80370088290154]}}, {"type": "Feature", "properties": {"norad_id": 57166, "name": "METEOR-M2 3", "group": "weather", "lat": -27.093774491524396, "lon": 49.72584953966237, "alt_km": 815.0216186387488, "timestamp": "2025-12-17T19:34:07.688238+00:00", "meta": {"OBJECT_NAME": "METEOR-M2 3", "OBJECT_ID": "2023-091A", "EPOCH": "2025-12-17T07:53:34.886400", "MEAN_MOTION": 14.2402658, "ECCENTRICITY": 0.00036431, "INCLINATION": 98.6374, "RA_OF_ASC_NODE": 44.788, "ARG_OF_PERICENTER": 355.3483, "MEAN_ANOMALY": 4.7662, "EPHEMERIS_TYPE": 0, "CLASSIFICATION_TYPE": "U", "NORAD_CAT_ID": 57166, "ELEMENT_SET_NO": 999, "REV_AT_EPOCH": 12863, "BSTAR": 1.8607976e-05, "MEAN_MOTION_DOT": -1e-08, "MEAN_MOTION_DDOT": 0}, "tle": {"line1": "1 57166U 23091A   25351.32887600 -.00000001  00000+0  18608-4 0  9998", "line2": "2 57166  98.6374  44.7880 0003643 355.3483   4.7662 14.24026580128639"}}, "geometry": {"type": "Point", "coordinates": [49.72584953966237, -27.093774491524396]}}, {"type": "Feature", "properties": {"norad_id": 57399, "name": "TIANMU-1 07", "group": "weather", "lat": -76.281076264921, "lon": -170.06211386540141, "alt_km": 492.39356229893747, "timestamp": "2025-12-17T19:34:07.688248+00:00", "meta": {"OBJECT_NAME": "TIANMU-1 07", "OBJECT_ID": "2023-101A", "EPOCH": "2025-12-17T07:26:27.673728", "MEAN_MOTION": 15.28137251, "ECCENTRICITY": 0.00054459, "INCLINATION": 97.2877, "RA_OF_ASC_NODE": 41.0594, "ARG_OF_PERICENTER": 70.1337, "MEAN_ANOMALY": 290.0489, "EPHEMERIS_TYPE": 0, "CLASSIFICATION_TYPE": "U", "NORAD_CAT_ID": 57399, "ELEMENT_SET_NO": 999, "REV_AT_EPOCH": 13385, "BSTAR": 0.00022055074, "MEAN_MOTION_DOT": 5.979e-05, "MEAN_MOTION_DDOT": 0}, "tle": {"line1": "1 57399U 23101A   25351.31004252  .00005979  00000+0  22055-3 0  9999", "line2": "2 57399  97.2877  41.0594 0005445  70.1337 290.0489 15.28137251133854"}}, "geometry": {"type": "Point", "coordinates": [-170.06211386540141, -76.281076264921]}}, {"type": "Feature", "properties": {"norad_id": 57400, "name": "TIANMU-1 08", "group": "weather", "lat": 77.44683285935037, "lon": 6.27730705104504, "alt_km": 469.1802497027793, "timestamp": "2025-12-17T19:34:07.688258+00:00", "meta": {"OBJECT_NAME": "TIANMU-1 08", "OBJECT_ID": "2023-101B", "EPOCH": "2025-12-17T08:13:13.925856", "MEAN_MOTION": 15.28120642, "ECCENTRICITY": 0.00073791, "INCLINATION": 97.2864, "RA_OF_ASC_NODE": 40.8885, "ARG_OF_PERICENTER": 71.1477, "MEAN_ANOMALY": 289.0562, "EPHEMERIS_TYPE": 0, "CLASSIFICATION_TYPE": "U", "NORAD_CAT_ID": 57400, "ELEMENT_SET_NO": 999, "REV_AT_EPOCH": 13385, "BSTAR": 0.00022070247, "MEAN_MOTION_DOT": 5.982e-05, "MEAN_MOTION_DDOT": 0}, "tle": {"line1": "1 57400U 23101B   25351.34252229  .00005982  00000+0  22070-3 0  9995", "line2": "2 57400  97.2864  40.8885 0007379  71.1477 289.0562 15.28120642133853"}}, "geometry": {"type": "Point", "coordinates": [6.27730705104504, 77.44683285935037]}}]}